KUIPER-00191            
1 67143U 25301L   26014.50936288  .00012830  00000+0  37069-3 0  9997
2 67143  51.8685 327.1168 0006659 190.8224 169.2619 15.35983253  5436
KUIPER-00196            
1 67144U 25301M   26014.23385332  .00021860  00000+0  61020-3 0  9993
2 67144  51.8736 328.2815 0003708 151.1716 208.9476 15.36654186  5368
KUIPER-00204            
1 67145U 25301N   26014.58335648 -.00017765  00000+0 -70940-3 0  9999
2 67145  51.8825 327.0425 0004612 124.3659 120.9752 15.24081593  5526
KUIPER-00210            
1 67146U 25301P   26014.46321345  .00017969  00000+0  53212-3 0  9993
2 67146  51.8623 327.5366 0010679 216.2948 143.7314 15.34888745  5560
KUIPER-00221            
1 67147U 25301Q   26014.58335648 -.00006853  00000+0 -20042-3 0  9995
2 67147  51.8732 326.7130 0004889 167.8742 271.2966 15.32989311  4907
KUIPER-00232            
1 67148U 25301R   26014.41645124  .00029068  00000+0  79288-3 0  9998
2 67148  51.8742 327.2575 0002667  95.2674 264.8617 15.37209879  5392
KUIPER-00241            
1 67149U 25301S   26014.09951208  .00023857  00000+0  66004-3 0  9998
2 67149  51.8748 328.8804 0002848 145.8023 214.3147 15.36878692  5675
KUIPER-00245            
1 67150U 25301T   26014.58335648 -.00827866  00000+0 -38987-1 0  9999
2 67150  51.8793 327.1474 0007902 188.7114   2.9631 15.21751558  4904
KUIPER-00246            
1 67151U 25301U   26014.29989559  .00018070  00000+0  50720-3 0  9992
2 67151  51.8739 327.9740 0003851 168.0113 192.0965 15.36611501  5392
KUIPER-00247            
1 67152U 25301V   26014.14193273  .00018207  00000+0  54487-3 0  9993
2 67152  51.8666 329.1402 0011250 215.3647 144.6594 15.34542009  5341
KUIPER-00248            
1 67153U 25301W   26014.45357977  .00020662  00000+0  60098-3 0  9994
2 67153  51.8694 327.4923 0007878 201.5988 158.4667 15.35381328  5562
KUIPER-00249            
1 67154U 25301X   26014.12405871  .00019694  00000+0  56682-3 0  9993
2 67154  51.8684 329.0303 0008292 197.8548 162.2148 15.35741814  5345
